OBJECT_NAME,OBJECT_ID,EPOCH,MEAN_MOTION,ECCENTRICITY,INCLINATION,RA_OF_ASC_NODE,ARG_OF_PERICENTER,MEAN_ANOMALY,EPHEMERIS_TYPE,CLASSIFICATION_TYPE,NORAD_CAT_ID,ELEMENT_SET_NO,REV_AT_EPOCH,BSTAR,MEAN_MOTION_DOT,MEAN_MOTION_DDOT
SL-12 R/B(2),1985-042D,2026-07-09T18:21:07.155360,14.22010239,.0037223,71.1061,189.8150,294.1643,239.1518,0,U,15772,999,13174,.43341E-4,.49E-6,0
SL-14 R/B,1985-069B,2026-07-09T04:19:55.325280,14.86532611,.00196604,82.5268,270.6828,146.0848,214.1631,0,U,15945,999,19088,.31437918E-4,.304E-5,0
SL-16 R/B,1985-097B,2026-07-09T03:37:53.012064,14.16612733,.00053964,71.0014,244.8376,63.5586,326.9225,0,U,16182,999,10443,-.91661842E-4,-.231E-5,0
SL-14 R/B,1986-006B,2026-07-09T14:16:28.960896,14.86965523,.0075068,82.5279,145.0270,227.6818,131.8024,0,U,16496,999,16732,.31319E-4,.321E-5,0
COSMOS 1743,1986-034A,2026-07-09T07:00:11.006784,15.69134331,.00051562,82.5274,305.1945,195.2214,164.8893,0,U,16719,999,19925,.40671186E-3,.47331E-3,0
SL-14 R/B,1986-046B,2026-07-09T15:33:19.028160,14.85687878,.0023026,82.4835,324.9511,181.1902,178.9264,0,U,16792,999,14451,.3448E-4,.325E-5,0
SL-14 R/B,1986-055B,2026-07-09T18:21:22.499136,14.85737926,.0017392,82.5198,11.9025,289.9187,80.7001,0,U,16882,999,13749,.28408E-4,.271E-5,0
AJISAI (EGS),1986-061A,2026-07-09T18:53:05.383104,12.44516686,.0011103,50.0098,77.9021,238.0674,213.1718,0,U,16908,999,48320,-.61684E-4,-.106E-5,0
SL-14 R/B,1987-024B,2026-07-09T16:54:31.548384,14.86229136,.0017364,82.5293,338.0842,212.5913,147.4233,0,U,17567,999,10625,.32128E-4,.307E-5,0
COSMOS 1833,1987-027A,2026-07-08T21:52:25.482720,14.13064435,.00238032,70.9211,71.2080,18.9278,341.2722,0,U,17589,999,2744,.10545344E-3,.149E-5,0
SL-16 R/B,1987-027B,2026-07-08T22:56:40.518528,14.17173871,.00071343,71.0028,20.9546,288.5027,71.5321,0,U,17590,999,3252,-.87378339E-4,-.224E-5,0
SL-14 R/B,1987-038B,2026-07-09T16:40:45.316416,14.85459084,.0020641,82.5007,181.8706,119.0964,241.2323,0,U,17912,999,9734,.28953E-4,.275E-5,0
COSMOS 1844,1987-041A,2026-07-09T14:15:30.398112,14.14577977,.0031676,70.8993,137.0434,203.1558,156.8138,0,U,17973,999,2082,.16157E-3,.263E-5,0
SL-14 R/B,1987-055B,2026-07-08T15:21:44.467200,14.85724484,.00199092,82.4976,235.0057,337.7330,22.3020,0,U,18153,999,8789,.26379407E-4,.254E-5,0
COSMOS 1867,1987-060A,2026-07-09T15:04:56.150688,14.31518164,.0017017,65.0120,325.2097,282.0549,77.8628,0,U,18187,999,3739,.11746E-4,-.69E-6,0
SL-14 R/B,1988-001B,2026-07-09T18:55:39.494784,14.85624631,.0017666,82.5127,80.5103,189.7106,170.3772,0,U,18749,999,6015,.24157E-4,.234E-5,0
COSMOS 1933,1988-020A,2026-07-09T05:46:16.503456,15.18864555,.00056479,82.5136,130.5950,122.7796,237.3983,0,U,18958,999,6867,.14555623E-3,.3065E-4,0
SL-3 R/B,1988-032B,2026-07-09T19:25:57.467424,15.21006092,.0025972,97.5267,173.8310,163.9388,196.2677,0,U,19046,999,7066,.11772E-3,.2561E-4,0
SL-16 R/B,1988-039B,2026-07-09T16:02:57.786432,14.19632014,.0020892,71.0134,170.6202,158.3712,201.8301,0,U,19120,999,97569,-.29201E-4,-.11E-5,0
COSMOS 1953,1988-050A,2026-07-08T23:48:19.152576,15.30278057,.00120093,82.5066,36.0397,59.6074,300.6352,0,U,19210,999,5632,.16699235E-3,.4933E-4,0
SL-8 R/B,1988-053B,2026-07-08T15:17:31.829280,14.38976067,.00195075,74.0464,249.5183,37.1846,76.7992,0,U,19257,999,99399,.51171872E-4,.132E-5,0
COSMOS 1975,1988-093A,2026-07-09T17:25:00.043680,15.29619324,.0012562,82.5194,355.0242,99.2739,260.9923,0,U,19573,999,3805,.16208E-3,.4695E-4,0
SL-14 R/B,1988-093B,2026-07-09T05:16:50.189376,14.85757728,.00205458,82.5318,287.9609,0.4190,17.6988,0,U,19574,999,1906,.29796168E-4,.284E-5,0
SL-16 R/B,1988-102B,2026-07-09T12:54:07.451136,14.16168393,.0014614,70.9989,255.1118,194.3850,165.6859,0,U,19650,999,94414,-.10203E-3,-.25E-5,0
INTERCOSMOS 24,1989-080A,2026-07-09T00:22:22.796832,12.59689177,.1187531,82.6046,25.4380,11.2877,351.2506,0,U,20261,999,68207,.10532401E-3,.375E-5,0
SL-14 R/B,1989-080C,2026-07-09T03:53:35.734560,12.50577707,.12284951,82.5941,95.1891,267.0981,78.9225,0,U,20262,999,67533,.1836111E-4,.62E-6,0
DELTA 1 R/B,1989-089B,2026-07-09T00:21:02.375712,14.50745304,.00706019,97.0635,18.0798,99.0691,261.8505,0,U,20323,999,91332,.60740704E-4,.212E-5,0
ARIANE 40 R/B,1990-005H,2026-07-08T17:23:58.042176,14.39938771,.00098148,98.2948,246.6702,193.3144,166.7787,0,U,20443,999,91022,.65444576E-4,.164E-5,0
DELTA 2 R/B(1),1990-008B,2026-07-08T22:17:43.438272,15.72614054,.0061912,35.6001,89.8186,317.2568,42.3369,0,U,20453,999,94512,.50739023E-3,.80241E-3,0
COSMOS 2058,1990-010A,2026-07-09T18:25:20.035200,15.12140458,.000785,82.4673,287.0862,273.1545,86.8787,0,U,20465,999,96068,.89905E-4,.1579E-4,0
